STARLINK-6244           
1 56548U 23065AX  24143.13686769  .00008408  00000+0  63653-3 0  9999
2 56548  42.9983 190.7507 0001047 276.3799  83.6924 15.02548588 56930
STARLINK-6263           
1 56549U 23065AY  24143.45371913  .00000456  00000+0  48832-4 0  9995
2 56549  43.0017 188.8286 0001184 270.2199  89.8508 15.02542293 56980
STARLINK-6255           
1 56550U 23065AZ  24142.53191378  .00012777  00000+0  95927-3 0  9995
2 56550  43.0012 193.9559 0001243 278.1677  81.9024 15.02532781 57620
STARLINK-6199           
1 56551U 23065BA  24143.18337097  .00004249  00000+0  32940-3 0  9999
2 56551  43.0012 190.2396 0000518 281.7708  78.3076 15.02537171 56948
STARLINK-5802           
1 56552U 23065BB  24142.45877482  .00001679  00000+0  13931-3 0  9999
2 56552  43.0016 194.2657 0001271 269.9285  90.1412 15.02533106 57617
STARLINK-6074           
1 56553U 23065BC  24143.18006035  .00021742  00000+0  16186-2 0  9996
2 56553  43.0013 190.2167 0001307 269.6590  90.4103 15.02558024 56944
STARLINK-6295           
1 56554U 23065BD  24143.31743670  .00003082  00000+0  24311-3 0  9992
2 56554  43.0014 189.5275 0001462 261.9000  98.1677 15.02537911 56965
STARLINK-6252           
1 56555U 23065BE  24143.17338352  .00007663  00000+0  58162-3 0  9994
2 56555  43.0070 190.1740 0003820 295.4595  64.5852 15.02541163 56948
STARLINK-5302           
1 56556U 23065BF  24143.17670680  .00000829  00000+0  76372-4 0  9999
2 56556  42.9967 190.1894 0000257 213.3406 146.7420 15.02538676 56942
STARLINK-6265           
1 56557U 23065BG  24143.36948453  .00003444  00000+0  26990-3 0  9993
2 56557  43.0009 189.0563 0001320 272.1039  87.9652 15.02535948 56974
STARLINK-6286           
1 56558U 23065BH  24143.16783065  .00003324  00000+0  26102-3 0  9990
2 56558  43.0032 190.1220 0001771 241.1767 118.8898 15.02538032 56948
STARLINK-30122          
1 56688U 23067A   24143.28759842 -.00008785  00000+0 -63625-3 0  9994
2 56688  43.0027 241.6914 0001715 287.2223  72.8431 15.02521842 56060
STARLINK-30129          
1 56689U 23067B   24143.34408885  .00007624  00000+0  57889-3 0  9994
2 56689  43.0025 241.2649 0001328 273.3627  86.7063 15.02532737 56075
STARLINK-30124          
1 56690U 23067C   24143.40725347 -.00001095  00000+0 -66059-4 0  9996
2 56690  42.9993 240.8872 0001312 262.4008  97.6685 15.02521757 56089
STARLINK-30087          
1 56691U 23067D   24143.18845526  .00032661  00000+0  83011-3 0  9991
2 56691  42.9984 202.7426 0033457  41.6419 318.6976 15.38459005 56512
STARLINK-30036          
1 56692U 23067E   24142.73578806  .00011752  00000+0  88292-3 0  9990
2 56692  43.0046 244.4643 0002846 249.3093 110.7445 15.02564114 55702
STARLINK-30067          
1 56693U 23067F   24142.72913764  .00010790  00000+0  81228-3 0  9999
2 56693  43.0046 244.4163 0002425 266.8915  93.1650 15.02549763 56830
STARLINK-30126          
1 56694U 23067G   24143.33077071  .00003181  00000+0  25041-3 0  9997
2 56694  43.0030 241.1910 0001780 273.1702  86.8937 15.02540219 56076
STARLINK-30121          
1 56695U 23067H   24142.59285319  .00017190  00000+0  12839-2 0  9996
2 56695  43.0014 245.0877 0001265 235.9173 124.1550 15.02553775 56810
STARLINK-30130          
1 56697U 23067K   24142.30030837  .00005474  00000+0  42001-3 0  9997
2 56697  43.0014 246.3546 0001602 266.9171  93.1488 15.02535443 56510
STARLINK-30068          
1 56698U 23067L   24143.50381965  .00002237  00000+0  18052-3 0  9995
2 56698  43.0016 226.9166 0001326 272.4875  87.5815 15.02559389 56258
STARLINK-30127          
1 56699U 23067M   24143.38726005  .00002329  00000+0  18742-3 0  9998
2 56699  43.0002 240.7561 0001290 298.8625  61.2088 15.02536385 56085
STARLINK-30053          
1 56700U 23067N   24143.45039067 -.00009268  00000+0 -67194-3 0  9990
2 56700  43.0040 240.3711 0002073 268.5824  91.4781 15.02533054 56094
STARLINK-30125          
1 56701U 23067P   24142.71583573  .00013442  00000+0  10081-2 0  9994
2 56701  43.0012 244.3212 0001254 297.1715  62.9000 15.02540753 56834
STARLINK-30117          
1 56702U 23067Q   24143.28426002  .00000168  00000+0  27491-4 0  9997
2 56702  43.0010 241.6344 0001449 264.0926  95.9751 15.02534123 56060
STARLINK-30132          
1 56703U 23067R   24143.31078333  .00001471  00000+0  12400-3 0  9993
2 56703  43.0009 241.0355 0001241 267.4266  92.6434 15.02524449 56072
STARLINK-30066          
1 56704U 23067S   24142.49307859  .00000931  00000+0  83996-4 0  9999
2 56704  43.0038 245.2010 0001676 280.9129  79.1525 15.02533573 55954
STARLINK-30080          
1 56705U 23067T   24143.30106697 -.00016879  00000+0 -12349-2 0  9990
2 56705  43.0044 228.0418 0001785 268.0200  92.0438 15.02610840 56222
STARLINK-30079          
1 56706U 23067U   24143.30413572  .00003029  00000+0  23918-3 0  9990
2 56706  43.0041 240.9899 0001561 264.6407  95.4258 15.02540639 56077
STARLINK-30070          
1 56707U 23067V   24143.30747478  .00015566  00000+0  11648-2 0  9991
2 56707  43.0017 241.0136 0002039 280.8792  79.1821 15.02536573 56072
STARLINK-30071          
1 56708U 23067W   24142.69583806 -.00002792  00000+0 -19173-3 0  9997
2 56708  43.0046 244.1634 0002278 259.6331 100.4254 15.02521139 56834
STARLINK-30085          
1 56709U 23067X   24142.63602168  .00007114  00000+0  54109-3 0  9994
2 56709  43.0025 244.5715 0001452 251.3307 108.7378 15.02540996 56561
STARLINK-6197           
1 56767U 23078A   24143.22435157 -.00000731  00000+0 -53445-4 0  9991
2 56767  69.9999 219.6915 0003027 258.1162 101.9658 14.98339277 54118
STARLINK-6198           
1 56768U 23078B   24143.16617306 -.00000490  00000+0 -32552-4 0  9991
2 56768  69.9994 179.7520 0002789 261.0338  99.0506 14.99144251 55098
STARLINK-5978           
1 56769U 23078C   24143.48304120  .00000588  00000+0  57050-4 0  9990
2 56769  69.9998 218.9866 0003142 266.7333  93.3466 14.98330716 54153
STARLINK-6342           
1 56770U 23078D   24143.48721165  .00000410  00000+0  42108-4 0  9996
2 56770  70.0030 219.0057 0002760 250.5332 109.5529 14.98341178 54158
STARLINK-6339           
1 56771U 23078E   24143.18193457 -.00000094  00000+0 -11348-6 0  9995
2 56771  69.9978 159.9140 0003192 264.4794  95.6001 14.98332545 55584
STARLINK-6275           
1 56772U 23078F   24143.47886824 -.00001908  00000+0 -15211-3 0  9990
2 56772  69.9996 218.9733 0003555 267.9027  92.1725 14.98337818 54154
STARLINK-6296           
1 56773U 23078G   24143.17792010 -.00002145  00000+0 -17210-3 0  9996
2 56773  70.0029 159.9090 0002244 240.9839 119.1095 14.98325731 55580
STARLINK-6190           
1 56774U 23078H   24143.19947030  .00001064  00000+0  96954-4 0  9993
2 56774  70.0018 219.6034 0002820 272.0832  88.0004 14.98333729 54118
STARLINK-6292           
1 56775U 23078J   24143.17775761 -.00001201  00000+0 -92841-4 0  9998
2 56775  70.0004 159.9059 0002832 256.6749 103.4094 14.98330003 55580
STARLINK-6274           
1 56776U 23078K   24143.20303506 -.00000851  00000+0 -63499-4 0  9994
2 56776  69.9999 179.8780 0002633 265.7292  94.3566 14.98334649 55094
STARLINK-5582           
1 56777U 23078L   24143.49534252  .00000566  00000+0  55206-4 0  9998
2 56777  70.0017 199.1594 0002620 257.7559 102.3306 14.98336043 54642
STARLINK-6304           
1 56778U 23078M   24143.19885234  .00000037  00000+0  10867-4 0  9992
2 56778  69.9997 179.8624 0003154 260.8897  99.1905 14.98339534 55095
STARLINK-6231           
1 56779U 23078N   24143.17381170 -.00000449  00000+0 -29843-4 0  9994
2 56779  69.9990 179.7709 0003020 268.5296  91.5517 14.98337631 55093
STARLINK-5963           
1 56780U 23078P   24143.49116948 -.00000459  00000+0 -30648-4 0  9996
2 56780  70.0001 199.1570 0002977 265.0066  95.0753 14.98335703 54649
STARLINK-5989           
1 56781U 23078Q   24143.20743326  .00000069  00000+0  13601-4 0  9997
2 56781  70.0002 199.7575 0002709 264.1817  95.9033 14.98327512 54604
STARLINK-6352           
1 56782U 23078R   24143.19468477 -.00000612  00000+0 -43479-4 0  9999
2 56782  69.9994 179.8454 0003352 270.4791  89.5984 14.98334061 55098
STARLINK-6357           
1 56783U 23078S   24143.18633781 -.00000645  00000+0 -46255-4 0  9992
2 56783  69.9996 179.8177 0002917 264.8696  95.2130 14.98334773 55097
STARLINK-6354           
1 56784U 23078T   24143.19050872 -.00000089  00000+0  33505-6 0  9995
2 56784  69.9995 179.8316 0003102 264.8740  95.2065 14.98337896 55095
STARLINK-5931           
1 56785U 23078U   24143.21578191 -.00000908  00000+0 -68303-4 0  9991
2 56785  70.0004 199.7873 0002638 255.5464 104.5402 14.98334373 54604
STARLINK-6341           
1 56786U 23078V   24143.18216221 -.00000443  00000+0 -29328-4 0  9999
2 56786  69.9992 179.8020 0003029 264.4647  95.6167 14.98335977 55091
STARLINK-6326           
1 56787U 23078W   24143.49091694  .00000716  00000+0  67810-4 0  9998
2 56787  69.9994 178.8741 0002852 267.5627  92.5205 14.98338093 55145
STARLINK-6336           
1 56788U 23078X   24143.17798390 -.00000127  00000+0 -28238-5 0  9991
2 56788  69.9993 179.7873 0002969 265.6112  94.4708 14.98339409 55093
STARLINK-6325           
1 56789U 23078Y   24143.48651705 -.00000291  00000+0 -16570-4 0  9991
2 56789  69.9994 158.9752 0002992 265.3732  94.7085 14.98333565 55639
STARLINK-6345           
1 56790U 23078Z   24143.16106843 -.00000669  00000+0 -48253-4 0  9998
2 56790  69.9995 159.8469 0003069 270.0077  90.0731 14.98329595 55587
STARLINK-5977           
1 56791U 23078AA  24143.17821160 -.00000649  00000+0 -46608-4 0  9996
2 56791  70.0002 199.6584 0003594 269.4418  90.6329 14.98336836 54601
STARLINK-6046           
1 56792U 23078AB  24143.21995260 -.00000499  00000+0 -34042-4 0  9997
2 56792  70.0012 199.8019 0002671 260.2025  99.8833 14.98336139 54603
STARLINK-6052           
1 56793U 23078AC  24142.59406977 -.00002526  00000+0 -20400-3 0  9995
2 56793  70.0007 201.2289 0002317 291.6280  68.4632 14.98330101 54515
